{
  "last_update": "29/Nov/2021 @ 09:35:24 UTC",
  "neo": {
    "todayurl": "https://api.nasa.gov/neo/rest/v1/feed/today?detailed=true&api_key=DEMO_KEY",
    "statsurl": "https://api.nasa.gov/neo/rest/v1/stats?api_key=DEMO_KEY",
    "last_update_date": "2021-05-29",
    "element_count": 8,
    "objects": [
      {
        "links": {
          "self": "http://www.neowsapp.com/rest/v1/neo/3556126?api_key=DEMO_KEY"
        },
        "id": "3556126",
        "neo_reference_id": "3556126",
        "name": "(2011 BM45)",
        "nasa_jpl_url": "http://ssd.jpl.nasa.gov/sbdb.cgi?sstr=3556126",
        "absolute_magnitude_h": 21.6,
        "estimated_diameter": {
          "kilometers": {
            "estimated_diameter_min": 0.1272198785,
            "estimated_diameter_max": 0.2844722965
          },
          "meters": {
            "estimated_diameter_min": 127.2198785394,
            "estimated_diameter_max": 284.4722965033
          },
          "miles": {
            "estimated_diameter_min": 0.0790507431,
            "estimated_diameter_max": 0.1767628354
          },
          "feet": {
            "estimated_diameter_min": 417.3880663071,
            "estimated_diameter_max": 933.3080892598
          }
        },
        "is_potentially_hazardous_asteroid": true,
        "close_approach_data": [
          {
            "close_approach_date": "2021-05-29",
            "close_approach_date_full": "2021-May-29 14:21",
            "epoch_date_close_approach": 1622298060000,
            "relative_velocity": {
              "kilometers_per_second": "29.6271268494",
              "kilometers_per_hour": "106657.6566580153",
              "miles_per_hour": "66272.9200495318"
            },
            "miss_distance": {
              "astronomical": "0.1074632652",
              "lunar": "41.8032101628",
              "kilometers": "16076275.577165124",
              "miles": "9989334.4320577512"
            },
            "orbiting_body": "Earth"
          }
        ],
        "orbital_data": {
          "orbit_id": "14",
          "orbit_determination_date": "2021-04-15 04:41:00",
          "first_observation_date": "2011-01-30",
          "last_observation_date": "2019-01-16",
          "data_arc_in_days": 2908,
          "observations_used": 50,
          "orbit_uncertainty": "2",
          "minimum_orbit_intersection": ".006921",
          "jupiter_tisserand_invariant": "3.429",
          "epoch_osculation": "2459200.5",
          "eccentricity": ".8033120879375182",
          "semi_major_axis": "1.921235850609081",
          "inclination": "5.325810164462105",
          "ascending_node_longitude": "302.286077271543",
          "orbital_period": "972.6787991752491",
          "perihelion_distance": ".3778838680358863",
          "perihelion_argument": "63.1535817643588",
          "aphelion_distance": "3.464587833182275",
          "perihelion_time": "2459408.000457544787",
          "mean_anomaly": "283.2016110770968",
          "mean_motion": ".3701119015909981",
          "equinox": "J2000",
          "orbit_class": {
            "orbit_class_type": "APO",
            "orbit_class_description": "Near-Earth asteroid orbits which cross the Earth’s orbit similar to that of 1862 Apollo",
            "orbit_class_range": "a (semi-major axis) > 1.0 AU; q (perihelion) < 1.017 AU"
          }
        },
        "is_sentry_object": false
      },
      {
        "links": {
          "self": "http://www.neowsapp.com/rest/v1/neo/3566463?api_key=DEMO_KEY"
        },
        "id": "3566463",
        "neo_reference_id": "3566463",
        "name": "(2011 KE3)",
        "nasa_jpl_url": "http://ssd.jpl.nasa.gov/sbdb.cgi?sstr=3566463",
        "absolute_magnitude_h": 23.9,
        "estimated_diameter": {
          "kilometers": {
            "estimated_diameter_min": 0.04411182,
            "estimated_diameter_max": 0.0986370281
          },
          "meters": {
            "estimated_diameter_min": 44.1118199997,
            "estimated_diameter_max": 98.6370281305
          },
          "miles": {
            "estimated_diameter_min": 0.0274098057,
            "estimated_diameter_max": 0.0612901888
          },
          "feet": {
            "estimated_diameter_min": 144.7238235278,
            "estimated_diameter_max": 323.6123073718
          }
        },
        "is_potentially_hazardous_asteroid": false,
        "close_approach_data": [
          {
            "close_approach_date": "2021-05-29",
            "close_approach_date_full": "2021-May-29 13:59",
            "epoch_date_close_approach": 1622296740000,
            "relative_velocity": {
              "kilometers_per_second": "7.2005482125",
              "kilometers_per_hour": "25921.9735650591",
              "miles_per_hour": "16106.906296578"
            },
            "miss_distance": {
              "astronomical": "0.2008474537",
              "lunar": "78.1296594893",
              "kilometers": "30046351.268443619",
              "miles": "18669936.9417311822"
            },
            "orbiting_body": "Earth"
          }
        ],
        "orbital_data": {
          "orbit_id": "22",
          "orbit_determination_date": "2021-04-15 05:06:55",
          "first_observation_date": "2011-05-22",
          "last_observation_date": "2017-07-04",
          "data_arc_in_days": 2235,
          "observations_used": 75,
          "orbit_uncertainty": "0",
          "minimum_orbit_intersection": ".128937",
          "jupiter_tisserand_invariant": "4.330",
          "epoch_osculation": "2459200.5",
          "eccentricity": ".287227637891603",
          "semi_major_axis": "1.584016115600571",
          "inclination": "8.630766124378036",
          "ascending_node_longitude": "231.453694478164",
          "orbital_period": "728.1784472704691",
          "perihelion_distance": "1.129042908334387",
          "perihelion_argument": "29.72988654563838",
          "aphelion_distance": "2.038989322866755",
          "perihelion_time": "2459369.242086881562",
          "mean_anomaly": "276.5765596261891",
          "mean_motion": ".494384311083962",
          "equinox": "J2000",
          "orbit_class": {
            "orbit_class_type": "AMO",
            "orbit_class_description": "Near-Earth asteroid orbits similar to that of 1221 Amor",
            "orbit_class_range": "1.017 AU < q (perihelion) < 1.3 AU"
          }
        },
        "is_sentry_object": false
      },
      {
        "links": {
          "self": "http://www.neowsapp.com/rest/v1/neo/3789743?api_key=DEMO_KEY"
        },
        "id": "3789743",
        "neo_reference_id": "3789743",
        "name": "(2017 WZ27)",
        "nasa_jpl_url": "http://ssd.jpl.nasa.gov/sbdb.cgi?sstr=3789743",
        "absolute_magnitude_h": 27.5,
        "estimated_diameter": {
          "kilometers": {
            "estimated_diameter_min": 0.008405334,
            "estimated_diameter_max": 0.0187948982
          },
          "meters": {
            "estimated_diameter_min": 8.4053340207,
            "estimated_diameter_max": 18.7948982439
          },
          "miles": {
            "estimated_diameter_min": 0.0052228308,
            "estimated_diameter_max": 0.0116786047
          },
          "feet": {
            "estimated_diameter_min": 27.5765560686,
            "estimated_diameter_max": 61.6630539546
          }
        },
        "is_potentially_hazardous_asteroid": false,
        "close_approach_data": [
          {
            "close_approach_date": "2021-05-29",
            "close_approach_date_full": "2021-May-29 14:58",
            "epoch_date_close_approach": 1622300280000,
            "relative_velocity": {
              "kilometers_per_second": "7.9736009438",
              "kilometers_per_hour": "28704.9633976127",
              "miles_per_hour": "17836.1479511444"
            },
            "miss_distance": {
              "astronomical": "0.4835970576",
              "lunar": "188.1192554064",
              "kilometers": "72345089.755227312",
              "miles": "44953154.2684364256"
            },
            "orbiting_body": "Earth"
          }
        ],
        "orbital_data": {
          "orbit_id": "3",
          "orbit_determination_date": "2021-04-15 20:08:27",
          "first_observation_date": "2017-11-22",
          "last_observation_date": "2017-11-28",
          "data_arc_in_days": 6,
          "observations_used": 32,
          "orbit_uncertainty": "7",
          "minimum_orbit_intersection": ".0345507",
          "jupiter_tisserand_invariant": "5.081",
          "epoch_osculation": "2459200.5",
          "eccentricity": ".1994894385879686",
          "semi_major_axis": "1.262229221391667",
          "inclination": "6.522418777230959",
          "ascending_node_longitude": "64.61095862462588",
          "orbital_period": "517.9713897688677",
          "perihelion_distance": "1.010427822646915",
          "perihelion_argument": "23.56757882975085",
          "aphelion_distance": "1.51403062013642",
          "perihelion_time": "2459143.162532886489",
          "mean_anomaly": "39.85063377742654",
          "mean_motion": ".6950190823486243",
          "equinox": "J2000",
          "orbit_class": {
            "orbit_class_type": "APO",
            "orbit_class_description": "Near-Earth asteroid orbits which cross the Earth’s orbit similar to that of 1862 Apollo",
            "orbit_class_range": "a (semi-major axis) > 1.0 AU; q (perihelion) < 1.017 AU"
          }
        },
        "is_sentry_object": false
      },
      {
        "links": {
          "self": "http://www.neowsapp.com/rest/v1/neo/3989400?api_key=DEMO_KEY"
        },
        "id": "3989400",
        "neo_reference_id": "3989400",
        "name": "(2020 CG)",
        "nasa_jpl_url": "http://ssd.jpl.nasa.gov/sbdb.cgi?sstr=3989400",
        "absolute_magnitude_h": 25.1,
        "estimated_diameter": {
          "kilometers": {
            "estimated_diameter_min": 0.0253837029,
            "estimated_diameter_max": 0.0567596853
          },
          "meters": {
            "estimated_diameter_min": 25.3837029364,
            "estimated_diameter_max": 56.7596852866
          },
          "miles": {
            "estimated_diameter_min": 0.0157726969,
            "estimated_diameter_max": 0.0352688224
          },
          "feet": {
            "estimated_diameter_min": 83.279867942,
            "estimated_diameter_max": 186.2194458756
          }
        },
        "is_potentially_hazardous_asteroid": false,
        "close_approach_data": [
          {
            "close_approach_date": "2021-05-29",
            "close_approach_date_full": "2021-May-29 19:31",
            "epoch_date_close_approach": 1622316660000,
            "relative_velocity": {
              "kilometers_per_second": "5.4954343948",
              "kilometers_per_hour": "19783.5638213211",
              "miles_per_hour": "12292.7371977536"
            },
            "miss_distance": {
              "astronomical": "0.1025871472",
              "lunar": "39.9064002608",
              "kilometers": "15346818.710496464",
              "miles": "9536070.9532166432"
            },
            "orbiting_body": "Earth"
          }
        ],
        "orbital_data": {
          "orbit_id": "6",
          "orbit_determination_date": "2021-05-04 05:58:09",
          "first_observation_date": "2020-01-28",
          "last_observation_date": "2020-02-17",
          "data_arc_in_days": 20,
          "observations_used": 35,
          "orbit_uncertainty": "6",
          "minimum_orbit_intersection": ".00480153",
          "jupiter_tisserand_invariant": "6.365",
          "epoch_osculation": "2459200.5",
          "eccentricity": ".2592098228791268",
          "semi_major_axis": ".9380107832611202",
          "inclination": "4.330772297789761",
          "ascending_node_longitude": "128.3631566786738",
          "orbital_period": "331.8258177791926",
          "perihelion_distance": ".6948691742732942",
          "perihelion_argument": "240.7217059046804",
          "aphelion_distance": "1.181152392248946",
          "perihelion_time": "2459122.670706268182",
          "mean_anomaly": "84.43750980853137",
          "mean_motion": "1.084906540453568",
          "equinox": "J2000",
          "orbit_class": {
            "orbit_class_type": "ATE",
            "orbit_class_description": "Near-Earth asteroid orbits similar to that of 2062 Aten",
            "orbit_class_range": "a (semi-major axis) < 1.0 AU; q (perihelion) > 0.983 AU"
          }
        },
        "is_sentry_object": false
      },
      {
        "links": {
          "self": "http://www.neowsapp.com/rest/v1/neo/54016993?api_key=DEMO_KEY"
        },
        "id": "54016993",
        "neo_reference_id": "54016993",
        "name": "(2020 JG1)",
        "nasa_jpl_url": "http://ssd.jpl.nasa.gov/sbdb.cgi?sstr=54016993",
        "absolute_magnitude_h": 25.8,
        "estimated_diameter": {
          "kilometers": {
            "estimated_diameter_min": 0.0183888672,
            "estimated_diameter_max": 0.0411187571
          },
          "meters": {
            "estimated_diameter_min": 18.388867207,
            "estimated_diameter_max": 41.1187571041
          },
          "miles": {
            "estimated_diameter_min": 0.0114263088,
            "estimated_diameter_max": 0.0255500032
          },
          "feet": {
            "estimated_diameter_min": 60.3309310875,
            "estimated_diameter_max": 134.9040630575
          }
        },
        "is_potentially_hazardous_asteroid": false,
        "close_approach_data": [
          {
            "close_approach_date": "2021-05-29",
            "close_approach_date_full": "2021-May-29 07:21",
            "epoch_date_close_approach": 1622272860000,
            "relative_velocity": {
              "kilometers_per_second": "9.8575782561",
              "kilometers_per_hour": "35487.2817220852",
              "miles_per_hour": "22050.4168011479"
            },
            "miss_distance": {
              "astronomical": "0.2203588859",
              "lunar": "85.7196066151",
              "kilometers": "32965219.966213033",
              "miles": "20483637.8480965354"
            },
            "orbiting_body": "Earth"
          }
        ],
        "orbital_data": {
          "orbit_id": "9",
          "orbit_determination_date": "2021-04-15 22:31:57",
          "first_observation_date": "2020-05-12",
          "last_observation_date": "2020-05-26",
          "data_arc_in_days": 14,
          "observations_used": 43,
          "orbit_uncertainty": "4",
          "minimum_orbit_intersection": ".0485831",
          "jupiter_tisserand_invariant": "6.196",
          "epoch_osculation": "2459200.5",
          "eccentricity": ".1033099372072795",
          "semi_major_axis": ".97288605503829",
          "inclination": "9.960059846837478",
          "ascending_node_longitude": "229.5857421534181",
          "orbital_period": "350.502721578441",
          "perihelion_distance": ".8723772577824463",
          "perihelion_argument": "156.3283749263961",
          "aphelion_distance": "1.073394852294133",
          "perihelion_time": "2459126.556693372886",
          "mean_anomaly": "75.94688642040553",
          "mean_motion": "1.027096161703936",
          "equinox": "J2000",
          "orbit_class": {
            "orbit_class_type": "ATE",
            "orbit_class_description": "Near-Earth asteroid orbits similar to that of 2062 Aten",
            "orbit_class_range": "a (semi-major axis) < 1.0 AU; q (perihelion) > 0.983 AU"
          }
        },
        "is_sentry_object": false
      },
      {
        "links": {
          "self": "http://www.neowsapp.com/rest/v1/neo/54144289?api_key=DEMO_KEY"
        },
        "id": "54144289",
        "neo_reference_id": "54144289",
        "name": "(2021 JK3)",
        "nasa_jpl_url": "http://ssd.jpl.nasa.gov/sbdb.cgi?sstr=54144289",
        "absolute_magnitude_h": 23.203,
        "estimated_diameter": {
          "kilometers": {
            "estimated_diameter_min": 0.0608071959,
            "estimated_diameter_max": 0.1359690236
          },
          "meters": {
            "estimated_diameter_min": 60.8071959073,
            "estimated_diameter_max": 135.9690235698
          },
          "miles": {
            "estimated_diameter_min": 0.0377838281,
            "estimated_diameter_max": 0.0844872081
          },
          "feet": {
            "estimated_diameter_min": 199.4986806205,
            "estimated_diameter_max": 446.0926112889
          }
        },
        "is_potentially_hazardous_asteroid": false,
        "close_approach_data": [
          {
            "close_approach_date": "2021-05-29",
            "close_approach_date_full": "2021-May-29 00:26",
            "epoch_date_close_approach": 1622247960000,
            "relative_velocity": {
              "kilometers_per_second": "19.5556075767",
              "kilometers_per_hour": "70400.1872760379",
              "miles_per_hour": "43743.9385882692"
            },
            "miss_distance": {
              "astronomical": "0.112763338",
              "lunar": "43.864938482",
              "kilometers": "16869155.17889006",
              "miles": "10482006.971040428"
            },
            "orbiting_body": "Earth"
          }
        ],
        "orbital_data": {
          "orbit_id": "8",
          "orbit_determination_date": "2021-05-25 09:49:03",
          "first_observation_date": "2021-05-08",
          "last_observation_date": "2021-05-25",
          "data_arc_in_days": 17,
          "observations_used": 47,
          "orbit_uncertainty": "7",
          "minimum_orbit_intersection": ".0134054",
          "jupiter_tisserand_invariant": "2.928",
          "epoch_osculation": "2459200.5",
          "eccentricity": ".762217859482382",
          "semi_major_axis": "2.561000643736307",
          "inclination": "9.39679373277275",
          "ascending_node_longitude": "55.91672448053833",
          "orbital_period": "1496.969522122282",
          "perihelion_distance": ".6089602149346167",
          "perihelion_argument": "270.322039345464",
          "aphelion_distance": "4.513041072537996",
          "perihelion_time": "2459408.325914676955",
          "mean_anomaly": "310.0208065842023",
          "mean_motion": ".24048585804848",
          "equinox": "J2000",
          "orbit_class": {
            "orbit_class_type": "APO",
            "orbit_class_description": "Near-Earth asteroid orbits which cross the Earth’s orbit similar to that of 1862 Apollo",
            "orbit_class_range": "a (semi-major axis) > 1.0 AU; q (perihelion) < 1.017 AU"
          }
        },
        "is_sentry_object": false
      },
      {
        "links": {
          "self": "http://www.neowsapp.com/rest/v1/neo/54145582?api_key=DEMO_KEY"
        },
        "id": "54145582",
        "neo_reference_id": "54145582",
        "name": "(2021 JR8)",
        "nasa_jpl_url": "http://ssd.jpl.nasa.gov/sbdb.cgi?sstr=54145582",
        "absolute_magnitude_h": 22.837,
        "estimated_diameter": {
          "kilometers": {
            "estimated_diameter_min": 0.0719705757,
            "estimated_diameter_max": 0.1609310996
          },
          "meters": {
            "estimated_diameter_min": 71.9705756899,
            "estimated_diameter_max": 160.9310996225
          },
          "miles": {
            "estimated_diameter_min": 0.0447204286,
            "estimated_diameter_max": 0.0999979183
          },
          "feet": {
            "estimated_diameter_min": 236.1239435466,
            "estimated_diameter_max": 527.9891888855
          }
        },
        "is_potentially_hazardous_asteroid": false,
        "close_approach_data": [
          {
            "close_approach_date": "2021-05-29",
            "close_approach_date_full": "2021-May-29 16:35",
            "epoch_date_close_approach": 1622306100000,
            "relative_velocity": {
              "kilometers_per_second": "8.0562344315",
              "kilometers_per_hour": "29002.4439534491",
              "miles_per_hour": "18020.9907998529"
            },
            "miss_distance": {
              "astronomical": "0.1321116146",
              "lunar": "51.3914180794",
              "kilometers": "19763616.146420902",
              "miles": "12280541.6171043676"
            },
            "orbiting_body": "Earth"
          }
        ],
        "orbital_data": {
          "orbit_id": "4",
          "orbit_determination_date": "2021-05-20 06:21:52",
          "first_observation_date": "2021-05-14",
          "last_observation_date": "2021-05-20",
          "data_arc_in_days": 6,
          "observations_used": 31,
          "orbit_uncertainty": "8",
          "minimum_orbit_intersection": ".0803209",
          "jupiter_tisserand_invariant": "4.184",
          "epoch_osculation": "2459349.5",
          "eccentricity": ".343997108571256",
          "semi_major_axis": "1.655926395185097",
          "inclination": "10.33688482889431",
          "ascending_node_longitude": "245.4492641831266",
          "orbital_period": "778.3231894127264",
          "perihelion_distance": "1.086292503234601",
          "perihelion_argument": "344.653824124326",
          "aphelion_distance": "2.225560287135594",
          "perihelion_time": "2459351.911604361735",
          "mean_anomaly": "358.8845538947906",
          "mean_motion": ".4625327947271278",
          "equinox": "J2000",
          "orbit_class": {
            "orbit_class_type": "AMO",
            "orbit_class_description": "Near-Earth asteroid orbits similar to that of 1221 Amor",
            "orbit_class_range": "1.017 AU < q (perihelion) < 1.3 AU"
          }
        },
        "is_sentry_object": false
      },
      {
        "links": {
          "self": "http://www.neowsapp.com/rest/v1/neo/54146672?api_key=DEMO_KEY"
        },
        "id": "54146672",
        "neo_reference_id": "54146672",
        "name": "(2021 KQ)",
        "nasa_jpl_url": "http://ssd.jpl.nasa.gov/sbdb.cgi?sstr=54146672",
        "absolute_magnitude_h": 26.093,
        "estimated_diameter": {
          "kilometers": {
            "estimated_diameter_min": 0.0160677467,
            "estimated_diameter_max": 0.0359285739
          },
          "meters": {
            "estimated_diameter_min": 16.0677466974,
            "estimated_diameter_max": 35.9285738605
          },
          "miles": {
            "estimated_diameter_min": 0.0099840318,
            "estimated_diameter_max": 0.0223249739
          },
          "feet": {
            "estimated_diameter_min": 52.7157060746,
            "estimated_diameter_max": 117.8759022646
          }
        },
        "is_potentially_hazardous_asteroid": false,
        "close_approach_data": [
          {
            "close_approach_date": "2021-05-29",
            "close_approach_date_full": "2021-May-29 05:44",
            "epoch_date_close_approach": 1622267040000,
            "relative_velocity": {
              "kilometers_per_second": "11.8146023916",
              "kilometers_per_hour": "42532.5686099008",
              "miles_per_hour": "26428.0840898575"
            },
            "miss_distance": {
              "astronomical": "0.0206390429",
              "lunar": "8.0285876881",
              "kilometers": "3087556.856678623",
              "miles": "1918518.8678380774"
            },
            "orbiting_body": "Earth"
          }
        ],
        "orbital_data": {
          "orbit_id": "5",
          "orbit_determination_date": "2021-05-24 05:49:17",
          "first_observation_date": "2021-05-16",
          "last_observation_date": "2021-05-24",
          "data_arc_in_days": 8,
          "observations_used": 23,
          "orbit_uncertainty": "8",
          "minimum_orbit_intersection": ".0191175",
          "jupiter_tisserand_invariant": "4.197",
          "epoch_osculation": "2459352.5",
          "eccentricity": ".4636227014976187",
          "semi_major_axis": "1.619525567582944",
          "inclination": "5.347878283024485",
          "ascending_node_longitude": "237.3650662358005",
          "orbital_period": "752.8009176812694",
          "perihelion_distance": ".8686767487956751",
          "perihelion_argument": "68.89986595046244",
          "aphelion_distance": "2.370374386370212",
          "perihelion_time": "2459407.809195088380",
          "mean_anomaly": "333.5503640283192",
          "mean_motion": ".4782140822952895",
          "equinox": "J2000",
          "orbit_class": {
            "orbit_class_type": "APO",
            "orbit_class_description": "Near-Earth asteroid orbits which cross the Earth’s orbit similar to that of 1862 Apollo",
            "orbit_class_range": "a (semi-major axis) > 1.0 AU; q (perihelion) < 1.017 AU"
          }
        },
        "is_sentry_object": false
      }
    ]
  },
  "apod": {
    "date": "2021-05-29",
    "explanation": "Why is the Moon so dusty? On Earth, rocks are weathered by wind and water, creating soil and sand. On the Moon, the history of constant micrometeorite bombardment has blasted away at the rocky surface creating a layer of powdery lunar soil or regolith.  For the Apollo astronauts and their equipment, the pervasive, fine, gritty dust was definitely a problem. On the lunar surface in December 1972, Apollo 17 astronauts Harrison Schmitt and Eugene Cernan needed to repair one of their rover's fenders in an effort to keep the rooster tails of dust away from themselves and their gear. This picture reveals the wheel and fender of their dust covered rover along with the ingenious application of spare maps, clamps, and a grey strip of \"duct tape\".",
    "hdurl": "https://apod.nasa.gov/apod/image/2105/AS17-137-20979.jpg",
    "media_type": "image",
    "service_version": "v1",
    "title": "Lunar Dust and Duct Tape",
    "url": "https://apod.nasa.gov/apod/image/2105/AS17-137-20979_1024.jpg",
    "todayurl": "https://apod.nasa.gov/apod/astropix.html",
    "archiveurl": "https://apod.nasa.gov/apod/archivepix.html",
    "datastore": "https://raw.githubusercontent.com/7h3rAm/datastore/master/apod.jpg"
  },
  "dscovr_epic": {
    "message": "This image was taken by NASA's EPIC camera onboard the NOAA DSCOVR spacecraft on 2021-05-26 00:13:03.",
    "source": "https://epic.gsfc.nasa.gov/archive/natural/2021/05/26/jpg/epic_1b_20210526001752.jpg",
    "datastore": "https://raw.githubusercontent.com/7h3rAm/datastore/master/dscovr_epic.jpg"
  },
  "himawari8_naturalcolor": {
    "source": "http://rammb.cira.colostate.edu/ramsdis/online/images/latest/himawari-8/full_disk_ahi_natural_color.jpg",
    "datastore": "https://raw.githubusercontent.com/7h3rAm/datastore/master/himwari8-full_disk_ahi_natural_color.jpg"
  },
  "himawari8_truecolor": {
    "source": "http://rammb.cira.colostate.edu/ramsdis/online/images/latest/himawari-8/full_disk_ahi_true_color.jpg",
    "datastore": "https://raw.githubusercontent.com/7h3rAm/datastore/master/himwari8-full_disk_ahi_true_color.jpg"
  },
  "goes16_geocolor": {
    "source": "https://cdn.star.nesdis.noaa.gov/GOES16/ABI/FD/GEOCOLOR/1808x1808.jpg",
    "datastore": "https://raw.githubusercontent.com/7h3rAm/datastore/master/goes16-1808x1808.jpg"
  },
  "goes17_geocolor": {
    "source": "https://cdn.star.nesdis.noaa.gov/GOES17/ABI/FD/GEOCOLOR/1808x1808.jpg",
    "datastore": "https://raw.githubusercontent.com/7h3rAm/datastore/master/goes17-1808x1808.jpg"
  },
  "meteosat0_naturalcolor": {
    "source": "https://eumetview.eumetsat.int/static-images/latestImages/EUMETSAT_MSG_RGBNatColourEnhncd_LowResolution.jpg",
    "datastore": "https://raw.githubusercontent.com/7h3rAm/datastore/master/EUMETSAT_MSG_RGBNatColourEnhncd_LowResolution.jpg"
  },
  "meteosat415_naturalcolor": {
    "source": "https://eumetview.eumetsat.int/static-images/latestImages/EUMETSAT_MSGIODC_RGBNatColourEnhncd_LowResolution.jpg",
    "datastore": "https://raw.githubusercontent.com/7h3rAm/datastore/master/EUMETSAT_MSGIODC_RGBNatColourEnhncd_LowResolution.jpg"
  },
  "insat_fd_ir": {
    "source": "https://mausam.imd.gov.in/Satellite/3Dglobe_ir1.jpg",
    "datastore": "https://raw.githubusercontent.com/7h3rAm/datastore/master/insat-3Dglobe_ir1.jpg"
  },
  "insat_fd_vis": {
    "source": "https://mausam.imd.gov.in/Satellite/3Dglobe_vis.jpg",
    "datastore": "https://raw.githubusercontent.com/7h3rAm/datastore/master/insat-3Dglobe_vis.jpg"
  },
  "insat_2d_ir": {
    "source": "https://mausam.imd.gov.in/Satellite/Converted/IR1.gif",
    "datastore": "https://raw.githubusercontent.com/7h3rAm/datastore/master/insat-IR1.gif"
  },
  "insat_2d_vis": {
    "source": "https://mausam.imd.gov.in/Satellite/Converted/VIS.gif",
    "datastore": "https://raw.githubusercontent.com/7h3rAm/datastore/master/insat-VIS.gif"
  },
  "sdo_0171": {
    "source": "https://sdo.gsfc.nasa.gov/assets/img/latest/latest_1024_0171.jpg",
    "datastore": "https://raw.githubusercontent.com/7h3rAm/datastore/master/latest_1024_0171.jpg"
  },
  "sdo_0304": {
    "source": "https://sdo.gsfc.nasa.gov/assets/img/latest/latest_1024_0304.jpg",
    "datastore": "https://raw.githubusercontent.com/7h3rAm/datastore/master/latest_1024_0304.jpg"
  },
  "sdo_HMID": {
    "source": "https://sdo.gsfc.nasa.gov/assets/img/latest/latest_1024_HMID.jpg",
    "datastore": "https://raw.githubusercontent.com/7h3rAm/datastore/master/latest_1024_HMID.jpg"
  },
  "sdo_HMIIC": {
    "source": "https://sdo.gsfc.nasa.gov/assets/img/latest/latest_1024_HMIIC.jpg",
    "datastore": "https://raw.githubusercontent.com/7h3rAm/datastore/master/latest_1024_HMIIC.jpg"
  }
}
